{"type":"FeatureCollection","metadata":{"title":"Ukrainian wine regions","registry":"https://nipo.gov.ua/reiestr-heohrafichnykh-zaznachen/","registryApi":"https://sis.nipo.gov.ua/api/v1/open-data/","boundarySource":"https://data.humdata.org/dataset/cod-ab-ukr","boundaryLicense":"CC-BY-IGO","boundaryVersion":"2025-09-01","featureCount":6},"features":[{"type":"Feature","id":"UA-GI-3126","properties":{"id":"UA-GI-3126","name":"Acha-Abag","localName":"АША-АБАГ","country":"UA","bbox":[30.34535,46.09947,30.42465,46.15442],"type":"Geographical indication","status":"registered","registrationNumber":"3126","registrationDate":"2023-12-20","coverage":"approximated"},"geometry":{"type":"Polygon","coordinates":[[[30.42465,46.12694],[30.4245,46.12934],[30.42404,46.13172],[30.4233,46.13406],[30.42226,46.13634],[30.42093,46.13856],[30.41934,46.14068],[30.41748,46.14271],[30.41537,46.14461],[30.41303,46.14637],[30.41048,46.14799],[30.40774,46.14945],[30.40482,46.15074],[30.40176,46.15185],[30.39856,46.15277],[30.39526,46.15349],[30.39188,46.154],[30.38846,46.15432],[30.385,46.15442],[30.38154,46.15432],[30.37812,46.154],[30.37474,46.15349],[30.37144,46.15277],[30.36824,46.15185],[30.36518,46.15074],[30.36226,46.14945],[30.35952,46.14799],[30.35697,46.14637],[30.35463,46.14461],[30.35252,46.14271],[30.35066,46.14068],[30.34907,46.13856],[30.34774,46.13634],[30.3467,46.13406],[30.34596,46.13172],[30.3455,46.12934],[30.34535,46.12694],[30.3455,46.12455],[30.34596,46.12217],[30.3467,46.11983],[30.34774,46.11755],[30.34907,46.11533],[30.35066,46.11321],[30.35252,46.11118],[30.35463,46.10928],[30.35697,46.10751],[30.35952,46.1059],[30.36226,46.10444],[30.36518,46.10315],[30.36824,46.10204],[30.37144,46.10112],[30.37474,46.1004],[30.37812,46.09988],[30.38154,46.09957],[30.385,46.09947],[30.38846,46.09957],[30.39188,46.09988],[30.39526,46.1004],[30.39856,46.10112],[30.40176,46.10204],[30.40482,46.10315],[30.40774,46.10444],[30.41048,46.1059],[30.41303,46.10751],[30.41537,46.10928],[30.41748,46.11118],[30.41934,46.11321],[30.42093,46.11533],[30.42226,46.11755],[30.4233,46.11983],[30.42404,46.12217],[30.4245,46.12455],[30.42465,46.12694]]]}},{"type":"Feature","id":"UA-GI-3125","properties":{"id":"UA-GI-3125","name":"Chabag","localName":"ШАБАГ","country":"UA","bbox":[30.30806,46.08917,30.41306,46.15861],"type":"Appellation","status":"registered","registrationNumber":"3125","registrationDate":"2023-12-20","coverage":"approximated"},"geometry":{"type":"Polygon","coordinates":[[[30.30806,46.08917],[30.41306,46.08917],[30.41306,46.15861],[30.30806,46.15861],[30.30806,46.08917]]]}},{"type":"Feature","id":"UA-GI-3127","properties":{"id":"UA-GI-3127","name":"Danubian Bessarabia","localName":"ПРИДУНАЙСЬКА БЕССАРАБІЯ","country":"UA","bbox":[28.21125,45.20313,30.20662,46.55844],"type":"Geographical indication","status":"registered","registrationNumber":"3127","registrationDate":"2023-12-20","coverage":"approximated"},"geometry":{"type":"MultiPolygon","coordinates":[[[[29.23895,46.52014],[29.24112,46.49913],[29.24892,46.50028],[29.25528,46.48578],[29.21994,46.46351],[29.22961,46.45818],[29.23112,46.43389],[29.24681,46.41934],[29.20657,46.3863],[29.20765,46.38455],[29.24096,46.376],[29.26664,46.39355],[29.2631,46.40568],[29.29662,46.41693],[29.30351,46.4082],[29.32411,46.41468],[29.30598,46.44449],[29.31852,46.44766],[29.30852,46.46496],[29.33635,46.47358],[29.3323,46.47911],[29.33822,46.48142],[29.33168,46.49598],[29.35033,46.50424],[29.39654,46.4251],[29.40324,46.42628],[29.4198,46.40381],[29.43852,46.40431],[29.44807,46.39847],[29.44399,46.39333],[29.45047,46.38472],[29.47291,46.37427],[29.48452,46.3604],[29.40597,46.33632],[29.38401,46.32445],[29.53124,46.28745],[29.60367,46.29462],[29.61038,46.27457],[29.59797,46.27316],[29.6146,46.21748],[29.59747,46.21331],[29.60456,46.20142],[29.61277,46.19747],[29.55107,46.19062],[29.51353,46.19859],[29.48465,46.19575],[29.48245,46.16054],[29.47337,46.15892],[29.47313,46.14684],[29.5199,46.1519],[29.53136,46.1407],[29.53353,46.09522],[29.5033,46.0379],[29.55154,46.04422],[29.55921,45.98462],[29.56084,45.94579],[29.59044,45.94959],[29.59603,45.92238],[29.49511,45.90903],[29.46518,45.91424],[29.43797,45.86468],[29.467,45.79182],[29.48465,45.7919],[29.48465,45.77787],[29.4033,45.79165],[29.41068,45.75207],[29.37466,45.73682],[29.31119,45.73064],[29.2081,45.70588],[29.21518,45.71167],[29.21316,45.71603],[29.21669,45.71711],[29.20225,45.71966],[29.20269,45.72589],[29.19912,45.72982],[29.2007,45.73716],[29.19233,45.73575],[29.18449,45.78423],[29.18061,45.78939],[29.18543,45.7911],[29.16897,45.81321],[29.09998,45.80037],[29.10466,45.78542],[29.0667,45.77933],[29.07557,45.75147],[29.05732,45.75284],[29.04272,45.73477],[29.01908,45.7371],[29.01365,45.73019],[29.02279,45.70229],[28.99831,45.69814],[28.97227,45.6979],[28.98588,45.65611],[28.93773,45.64799],[28.94284,45.63834],[28.94045,45.63699],[28.94793,45.62843],[28.87823,45.61663],[28.88169,45.60668],[28.83616,45.59833],[28.80769,45.60062],[28.73751,45.58928],[28.76967,45.49575],[28.70303,45.48406],[28.7039,45.47475],[28.6526,45.46537],[28.64812,45.46754],[28.64281,45.47225],[28.64751,45.48989],[28.65535,45.50072],[28.65876,45.52043],[28.59934,45.53473],[28.5528,45.55392],[28.51578,45.66535],[28.48298,45.65976],[28.48107,45.68102],[28.50411,45.70031],[28.52033,45.73834],[28.53376,45.73394],[28.55624,45.7364],[28.56403,45.7265],[28.59117,45.73101],[28.59545,45.7381],[28.59163,45.7531],[28.57948,45.76995],[28.5878,45.77274],[28.6246,45.76636],[28.70923,45.77989],[28.69662,45.81793],[28.78624,45.83239],[28.75465,45.92722],[28.75977,45.92819],[28.76369,45.934],[28.75713,45.9571],[28.77951,45.96025],[28.77618,45.97063],[28.97902,46.00346],[29.00366,46.04528],[29.0041,46.05099],[28.95046,46.09394],[29.06758,46.19551],[28.94919,46.26045],[28.99369,46.3319],[28.96735,46.37418],[28.94159,46.43046],[28.93707,46.45154],[28.93033,46.45732],[29.02588,46.46252],[29.02325,46.47999],[28.98909,46.47922],[28.98892,46.48901],[29.03304,46.49093],[29.03324,46.49355],[29.0392,46.4936],[29.03971,46.506],[29.06226,46.50695],[29.06311,46.51214],[29.16343,46.51523],[29.16167,46.54474],[29.23555,46.55844],[29.23895,46.52014]]],[[[28.7066,45.47127],[28.70981,45.46776],[28.71497,45.46971],[28.716,45.46322],[28.70858,45.46229],[28.70482,45.46856],[28.7066,45.47127]]],[[[29.18975,45.75843],[29.19233,45.73575],[29.2007,45.73716],[29.19912,45.72982],[29.20269,45.72589],[29.20198,45.71989],[29.21669,45.71711],[29.21316,45.71603],[29.21518,45.71167],[29.2081,45.70588],[29.31565,45.73132],[29.32684,45.6897],[29.41816,45.69917],[29.42406,45.67084],[29.46121,45.67522],[29.4686,45.63874],[29.48926,45.64117],[29.49264,45.62653],[29.48703,45.62553],[29.48675,45.62075],[29.49102,45.62081],[29.49366,45.61454],[29.5111,45.617],[29.51246,45.62109],[29.55479,45.62382],[29.55191,45.64374],[29.60453,45.64815],[29.60915,45.61887],[29.59693,45.57276],[29.59743,45.56052],[29.60626,45.55078],[29.64956,45.5294],[29.62431,45.50212],[29.62286,45.49429],[29.62888,45.48316],[29.62306,45.4885],[29.62233,45.48229],[29.61647,45.48652],[29.61288,45.48304],[29.61611,45.47492],[29.60975,45.47888],[29.6118,45.48564],[29.60807,45.48744],[29.6039,45.48163],[29.60713,45.4761],[29.61899,45.46945],[29.62507,45.47292],[29.62527,45.47606],[29.63127,45.47489],[29.63274,45.4619],[29.64844,45.45163],[29.66052,45.46201],[29.6601,45.46775],[29.65113,45.46671],[29.65285,45.47464],[29.66052,45.47659],[29.67057,45.47429],[29.67748,45.46988],[29.67037,45.4639],[29.67907,45.45852],[29.68279,45.45834],[29.68262,45.46426],[29.69264,45.46792],[29.6996,45.46539],[29.70314,45.45822],[29.70855,45.4579],[29.70985,45.4653],[29.71351,45.46358],[29.70597,45.46956],[29.74514,45.48994],[29.75438,45.48922],[29.74496,45.4771],[29.74936,45.46651],[29.76624,45.47124],[29.77434,45.46798],[29.77998,45.46944],[29.78227,45.45441],[29.77281,45.4347],[29.77548,45.4464],[29.77368,45.45212],[29.7619,45.44806],[29.75955,45.44357],[29.75499,45.44386],[29.76636,45.42403],[29.76421,45.42175],[29.76651,45.41754],[29.76282,45.41391],[29.75896,45.41517],[29.75677,45.41078],[29.76152,45.40722],[29.75466,45.37587],[29.75747,45.35637],[29.76726,45.34197],[29.7586,45.33794],[29.7658,45.32178],[29.76008,45.30955],[29.75167,45.30436],[29.75409,45.30155],[29.74365,45.28249],[29.74093,45.26474],[29.74265,45.24764],[29.73982,45.24616],[29.74752,45.23974],[29.75753,45.22355],[29.74845,45.22239],[29.73449,45.22737],[29.72788,45.22419],[29.72855,45.21696],[29.72269,45.20924],[29.71735,45.20868],[29.71602,45.21655],[29.70719,45.21977],[29.70383,45.21812],[29.70315,45.21162],[29.69438,45.2109],[29.69577,45.20548],[29.68814,45.20828],[29.6902,45.20392],[29.68632,45.20313],[29.67343,45.21674],[29.65969,45.24873],[29.6644,45.26047],[29.67741,45.26967],[29.67612,45.28152],[29.66994,45.2958],[29.6696,45.30804],[29.65088,45.34019],[29.63042,45.35462],[29.59492,45.38818],[29.55035,45.40916],[29.47572,45.42282],[29.43868,45.43442],[29.42846,45.44318],[29.39334,45.43618],[29.38146,45.43979],[29.35315,45.43746],[29.32733,45.44825],[29.32,45.4463],[29.29323,45.42755],[29.27797,45.42732],[29.24893,45.43525],[29.23801,45.43263],[29.21904,45.41988],[29.18804,45.41229],[29.18015,45.40031],[29.1695,45.39493],[29.12388,45.38294],[29.10611,45.37461],[29.08419,45.37392],[29.05884,45.36048],[29.04256,45.36012],[28.98557,45.3319],[28.96389,45.32995],[28.94931,45.31169],[28.95443,45.29622],[28.95288,45.28725],[28.94008,45.27941],[28.91923,45.28362],[28.87286,45.31623],[28.84926,45.31629],[28.83716,45.32134],[28.82,45.33492],[28.7975,45.33508],[28.78191,45.3274],[28.78087,45.32324],[28.80446,45.31143],[28.8027,45.3019],[28.78974,45.29159],[28.75946,45.28996],[28.75162,45.28151],[28.76679,45.26251],[28.79082,45.24885],[28.79139,45.2422],[28.78164,45.23718],[28.74635,45.23358],[28.71887,45.22432],[28.70977,45.22406],[28.64941,45.24082],[28.55908,45.24901],[28.53285,45.26237],[28.34776,45.32066],[28.33497,45.33009],[28.30039,45.38145],[28.28221,45.39761],[28.28639,45.43205],[28.27854,45.44602],[28.26183,45.45568],[28.21125,45.46707],[28.25856,45.5183],[28.30587,45.54678],[28.4155,45.51398],[28.42025,45.51694],[28.42674,45.53053],[28.42519,45.49384],[28.42762,45.48613],[28.51525,45.49986],[28.49151,45.57121],[28.54412,45.58007],[28.5528,45.55392],[28.59934,45.53473],[28.65814,45.52111],[28.66003,45.5169],[28.65535,45.50072],[28.64751,45.48989],[28.64281,45.47225],[28.64812,45.46754],[28.6526,45.46537],[28.7039,45.47475],[28.70303,45.48406],[28.76967,45.49575],[28.73751,45.58928],[28.80769,45.60062],[28.83616,45.59833],[28.88169,45.60668],[28.87823,45.61663],[28.94793,45.62843],[28.94045,45.63699],[28.94284,45.63834],[28.93773,45.64799],[28.98588,45.65611],[28.97227,45.6979],[28.99831,45.69814],[29.02279,45.70229],[29.01365,45.73019],[29.01908,45.7371],[29.04272,45.73477],[29.05732,45.75284],[29.07557,45.75147],[29.0667,45.77933],[29.10466,45.78542],[29.09998,45.80037],[29.16897,45.81321],[29.18543,45.7911],[29.18061,45.78939],[29.18449,45.78423],[29.18975,45.75843]]],[[[28.70608,45.46744],[28.70858,45.46229],[28.716,45.46322],[28.71497,45.46971],[28.70981,45.46776],[28.70537,45.47113],[28.70608,45.46744]]],[[[30.20662,45.2574],[30.20619,45.25263],[30.20185,45.25244],[30.20001,45.25699],[30.20662,45.2574]]],[[[29.63761,45.47818],[29.64878,45.47162],[29.62503,45.47737],[29.62837,45.48021],[29.63761,45.47818]]]]}},{"type":"Feature","id":"UA-GI-3132","properties":{"id":"UA-GI-3132","name":"Frumushika Valley","localName":"ДОЛИНА ФРУМУШИКА","country":"UA","bbox":[29.35917,46.13042,29.45448,46.36679],"type":"Appellation","status":"registered","registrationNumber":"3132","registrationDate":"2024-07-24","coverage":"approximated"},"geometry":{"type":"Polygon","coordinates":[[[29.35917,46.13042],[29.45448,46.13042],[29.45448,46.36679],[29.35917,46.36679],[29.35917,46.13042]]]}},{"type":"Feature","id":"UA-GI-3128","properties":{"id":"UA-GI-3128","name":"Yalpuh","localName":"ЯЛПУГ","country":"UA","bbox":[28.47861,45.46444,28.71028,45.77056],"type":"Appellation","status":"registered","registrationNumber":"3128","registrationDate":"2023-12-20","coverage":"approximated"},"geometry":{"type":"Polygon","coordinates":[[[28.47861,45.46444],[28.71028,45.46444],[28.71028,45.77056],[28.47861,45.77056],[28.47861,45.46444]]]}},{"type":"Feature","id":"UA-GI-3129","properties":{"id":"UA-GI-3129","name":"Zakarpattia Wine","localName":"ЗАКАРПАТТЯ / ЗАКАРПАТСЬКЕ ВИНО","country":"UA","bbox":[22.13711,47.95416,23.86476,49.09703],"type":"Geographical indication","status":"registered","registrationNumber":"3129","registrationDate":"2024-05-29","coverage":"defined"},"geometry":{"type":"MultiPolygon","coordinates":[[[[22.36475,48.37932],[22.38157,48.37906],[22.38391,48.38763],[22.39387,48.39239],[22.40484,48.3804],[22.41797,48.39062],[22.44853,48.37561],[22.45166,48.37809],[22.45996,48.37459],[22.48189,48.37379],[22.47376,48.38013],[22.47665,48.38661],[22.49728,48.38433],[22.49498,48.37302],[22.50876,48.37309],[22.52136,48.36412],[22.5331,48.3608],[22.53338,48.35389],[22.54309,48.349],[22.52425,48.33385],[22.53581,48.33107],[22.50165,48.30814],[22.50438,48.30652],[22.50409,48.30096],[22.52205,48.29763],[22.54051,48.30143],[22.55189,48.2996],[22.56682,48.30681],[22.56967,48.31618],[22.57632,48.32058],[22.56998,48.32478],[22.55619,48.32047],[22.54471,48.32557],[22.56355,48.33022],[22.57121,48.33914],[22.57431,48.33586],[22.58132,48.33668],[22.58523,48.33031],[22.59713,48.33222],[22.59292,48.32757],[22.6051,48.32262],[22.61072,48.32618],[22.61354,48.32448],[22.60167,48.31647],[22.61059,48.3133],[22.62247,48.31543],[22.62482,48.31934],[22.63545,48.32312],[22.62942,48.33261],[22.64069,48.33965],[22.66802,48.3073],[22.70747,48.29314],[22.75464,48.28784],[22.76646,48.29431],[22.79235,48.29111],[22.79253,48.29733],[22.78819,48.30002],[22.79157,48.30974],[22.81498,48.31445],[22.81589,48.31952],[22.82501,48.32967],[22.83479,48.33122],[22.83852,48.33561],[22.82831,48.33942],[22.82665,48.34192],[22.83054,48.34578],[22.83577,48.34666],[22.84568,48.3423],[22.84088,48.33752],[22.86023,48.33599],[22.85663,48.3509],[22.86358,48.35515],[22.87082,48.34211],[22.87723,48.34082],[22.87947,48.33458],[22.87433,48.33177],[22.87775,48.32644],[22.8531,48.32619],[22.85777,48.31619],[22.85572,48.30493],[22.87629,48.30056],[22.87288,48.2882],[22.89542,48.28099],[22.89835,48.28146],[22.89025,48.29834],[22.89984,48.30215],[22.89664,48.31158],[22.89188,48.3134],[22.9072,48.32407],[22.89634,48.32055],[22.89469,48.32811],[22.90703,48.32555],[22.91116,48.32941],[22.91716,48.32935],[22.92279,48.3374],[22.9225,48.34303],[22.94627,48.35119],[22.94876,48.34398],[22.97197,48.34034],[22.97213,48.33262],[22.9757,48.32957],[22.99278,48.33326],[22.98941,48.32921],[22.99114,48.32474],[22.98734,48.32485],[22.99181,48.31709],[23.00877,48.30285],[23.02361,48.295],[23.02694,48.29798],[23.02603,48.29249],[23.02947,48.28735],[23.02528,48.28585],[23.03294,48.27932],[22.99768,48.28674],[22.9791,48.28602],[22.97366,48.28007],[22.95623,48.27472],[22.95024,48.26418],[22.94066,48.25674],[22.9482,48.25195],[22.94613,48.24956],[22.96635,48.25367],[22.98232,48.26096],[22.99945,48.26039],[23.01899,48.27075],[23.03226,48.27041],[23.03552,48.27335],[23.04192,48.26782],[23.03817,48.26094],[23.04611,48.25774],[23.0517,48.26025],[23.05198,48.2558],[23.05917,48.25449],[23.05675,48.25162],[23.06062,48.24227],[23.05817,48.24081],[23.06701,48.23191],[23.06316,48.22951],[23.06266,48.22199],[23.09285,48.22062],[23.09474,48.2315],[23.09817,48.23312],[23.10011,48.24248],[23.10291,48.24262],[23.12331,48.22964],[23.12428,48.22532],[23.15214,48.21138],[23.15746,48.19866],[23.15504,48.19816],[23.15588,48.19289],[23.16859,48.18828],[23.17532,48.18067],[23.20313,48.17192],[23.20518,48.16254],[23.22383,48.15787],[23.23133,48.15229],[23.23649,48.15303],[23.23943,48.15748],[23.24377,48.15305],[23.26378,48.15232],[23.27139,48.12883],[23.27127,48.1208],[23.26114,48.10866],[23.26752,48.10102],[23.25185,48.1008],[23.24625,48.09199],[23.18916,48.09772],[23.18531,48.10338],[23.18832,48.10871],[23.18176,48.11205],[23.18121,48.11723],[23.16661,48.11994],[23.16557,48.11534],[23.15111,48.11263],[23.14624,48.09956],[23.13885,48.09453],[23.13026,48.09557],[23.11397,48.08656],[23.1234,48.08161],[23.12334,48.07741],[23.11781,48.07655],[23.11364,48.06954],[23.10521,48.06573],[23.11249,48.06178],[23.10914,48.05748],[23.11243,48.05437],[23.09821,48.04423],[23.10916,48.03831],[23.10923,48.03521],[23.10137,48.02594],[23.08983,48.01927],[23.0902,48.01645],[23.09742,48.01579],[23.08997,48.00546],[23.06567,48.00766],[23.05699,48.00334],[23.0306,48.00029],[23.02412,47.99173],[23.01357,47.99046],[23.00589,47.99559],[22.9967,47.99597],[22.99245,48.00451],[22.97686,48.00678],[22.97773,48.00988],[22.9626,48.01145],[22.96115,48.00743],[22.9442,48.01639],[22.92712,48.01909],[22.92187,48.01445],[22.92035,48.00667],[22.92291,48.00243],[22.93522,47.99889],[22.94248,47.97232],[22.9475,47.96726],[22.92962,47.95902],[22.92313,47.96012],[22.9184,47.95665],[22.91672,47.96026],[22.91385,47.95753],[22.91032,47.96023],[22.91037,47.95711],[22.90744,47.96],[22.90544,47.95675],[22.90057,47.95769],[22.90104,47.95485],[22.89549,47.95416],[22.89641,47.95677],[22.89061,47.95697],[22.89254,47.96698],[22.879,47.96339],[22.87992,47.96675],[22.87075,47.96828],[22.87303,47.97364],[22.8692,47.97664],[22.86172,47.97358],[22.86268,47.97834],[22.85833,47.97639],[22.85995,47.97963],[22.84597,47.98245],[22.84022,47.98075],[22.84389,47.98456],[22.84236,47.98807],[22.83563,47.98985],[22.84474,47.99857],[22.84919,47.99836],[22.84753,48.00238],[22.86604,48.01209],[22.86468,48.02193],[22.87248,48.0243],[22.88039,48.03644],[22.88154,48.05472],[22.87329,48.05588],[22.8734,48.05159],[22.8679,48.05193],[22.86094,48.05771],[22.86493,48.05916],[22.86141,48.05983],[22.86353,48.06167],[22.85948,48.06592],[22.86176,48.06751],[22.85843,48.06865],[22.86179,48.07068],[22.86085,48.07434],[22.84723,48.08337],[22.83658,48.07968],[22.83654,48.08371],[22.84001,48.08553],[22.83366,48.08838],[22.83467,48.09316],[22.82776,48.09561],[22.83163,48.10831],[22.82489,48.117],[22.8157,48.1173],[22.8064,48.10603],[22.80165,48.10918],[22.80703,48.11915],[22.80227,48.12168],[22.79043,48.11657],[22.77226,48.12146],[22.77087,48.11767],[22.77848,48.11222],[22.77047,48.10891],[22.76234,48.1116],[22.75666,48.11999],[22.7439,48.11713],[22.73511,48.1193],[22.72919,48.11432],[22.72055,48.11517],[22.70525,48.10971],[22.67275,48.09169],[22.63486,48.09554],[22.61985,48.10589],[22.60423,48.10395],[22.59024,48.10761],[22.59218,48.11334],[22.59925,48.11628],[22.59241,48.12386],[22.59543,48.13531],[22.58825,48.14165],[22.59815,48.14518],[22.58286,48.1596],[22.57466,48.15919],[22.56583,48.17891],[22.56141,48.18158],[22.56208,48.18466],[22.56869,48.18511],[22.57162,48.19037],[22.57038,48.19607],[22.55602,48.19841],[22.54436,48.20784],[22.53169,48.20885],[22.51311,48.22617],[22.51541,48.23798],[22.49722,48.2395],[22.50326,48.24483],[22.50011,48.24657],[22.50214,48.24844],[22.48658,48.25372],[22.46974,48.24763],[22.46797,48.24296],[22.45706,48.24137],[22.44698,48.24346],[22.4402,48.25002],[22.43255,48.25235],[22.43024,48.25076],[22.43251,48.24679],[22.41967,48.25064],[22.40091,48.24904],[22.38446,48.23415],[22.36926,48.24498],[22.35974,48.26538],[22.33852,48.27895],[22.34067,48.28271],[22.33724,48.29243],[22.34015,48.29566],[22.3367,48.30786],[22.32092,48.31451],[22.31805,48.31744],[22.31938,48.32202],[22.31284,48.3264],[22.31998,48.33858],[22.31696,48.3448],[22.31982,48.35002],[22.31733,48.35281],[22.32005,48.36029],[22.31723,48.3645],[22.32061,48.36729],[22.31882,48.36861],[22.34201,48.37486],[22.34738,48.37988],[22.34277,48.38195],[22.34796,48.38445],[22.34207,48.40604],[22.36103,48.40261],[22.35597,48.38871],[22.36184,48.38845],[22.35946,48.38191],[22.36475,48.37932]],[[22.90128,48.23936],[22.91778,48.24335],[22.9109,48.24989],[22.90286,48.25057],[22.89614,48.24261],[22.90128,48.23936]]],[[[22.88742,48.9228],[22.89117,48.91122],[22.89822,48.90435],[22.92952,48.88786],[22.97047,48.87437],[22.96985,48.86262],[22.97474,48.84485],[23.00101,48.82951],[23.02012,48.84718],[23.02991,48.84659],[23.04514,48.85128],[23.05766,48.84669],[23.06889,48.85464],[23.08488,48.8546],[23.08741,48.86066],[23.09852,48.86283],[23.12472,48.85108],[23.13147,48.85257],[23.13608,48.84509],[23.13072,48.84027],[23.13361,48.83408],[23.1508,48.83214],[23.168,48.81683],[23.17082,48.80899],[23.17759,48.80617],[23.17917,48.79206],[23.18953,48.78183],[23.20082,48.76064],[23.22472,48.76345],[23.23996,48.75865],[23.25277,48.76274],[23.26797,48.76167],[23.27897,48.76691],[23.28089,48.77479],[23.28541,48.77583],[23.29586,48.7669],[23.31634,48.75687],[23.31658,48.74497],[23.31129,48.73766],[23.31378,48.72782],[23.30867,48.72186],[23.29668,48.72119],[23.29013,48.71613],[23.2926,48.7116],[23.28892,48.70418],[23.29309,48.69383],[23.29061,48.68832],[23.28439,48.68287],[23.26552,48.67664],[23.24682,48.66253],[23.24835,48.65163],[23.23105,48.64813],[23.2262,48.6403],[23.21987,48.64295],[23.20904,48.63642],[23.18949,48.64306],[23.18734,48.6401],[23.19103,48.63756],[23.1899,48.63355],[23.16438,48.63608],[23.16483,48.62934],[23.17856,48.62702],[23.16622,48.61849],[23.1716,48.61566],[23.16616,48.61402],[23.15581,48.6165],[23.15717,48.62011],[23.15311,48.6199],[23.15239,48.62253],[23.13845,48.62608],[23.14274,48.62142],[23.13666,48.61808],[23.14914,48.61959],[23.16481,48.61047],[23.18061,48.61899],[23.19356,48.61968],[23.19888,48.60914],[23.19505,48.58545],[23.18065,48.57481],[23.16399,48.5697],[23.15311,48.54999],[23.15897,48.54605],[23.15338,48.53977],[23.15873,48.53688],[23.1568,48.52434],[23.16001,48.51792],[23.15782,48.50514],[23.15342,48.50313],[23.16929,48.49329],[23.16442,48.48972],[23.16625,48.48449],[23.16336,48.48308],[23.17078,48.47627],[23.16581,48.46871],[23.1588,48.46618],[23.15894,48.46309],[23.14373,48.45142],[23.14293,48.44487],[23.13119,48.45345],[23.09042,48.45611],[23.07482,48.46877],[23.04969,48.47954],[23.01728,48.48175],[22.99227,48.49467],[22.98058,48.49579],[22.96354,48.48985],[22.9546,48.48283],[22.95148,48.47182],[22.92041,48.45175],[22.92517,48.44584],[22.9184,48.43821],[22.91892,48.42848],[22.9124,48.42689],[22.91177,48.42299],[22.89609,48.42482],[22.88306,48.4329],[22.88779,48.43536],[22.8823,48.43747],[22.88588,48.43917],[22.88288,48.4415],[22.89182,48.44293],[22.89629,48.44909],[22.89014,48.44549],[22.8871,48.44665],[22.88987,48.44957],[22.88723,48.44773],[22.88328,48.45089],[22.88231,48.44282],[22.87147,48.44206],[22.87829,48.4414],[22.87729,48.43497],[22.8631,48.44015],[22.8605,48.44406],[22.85467,48.44172],[22.8512,48.43866],[22.85228,48.43481],[22.85932,48.432],[22.86057,48.42841],[22.87114,48.4275],[22.86904,48.41963],[22.8792,48.41807],[22.87952,48.40993],[22.89405,48.40579],[22.89693,48.40817],[22.91051,48.40732],[22.91947,48.39974],[22.93124,48.38344],[22.9213,48.38424],[22.91711,48.38149],[22.92088,48.37945],[22.91905,48.37801],[22.93826,48.37173],[22.93824,48.36033],[22.94417,48.35893],[22.94356,48.35413],[22.94622,48.35334],[22.94297,48.34877],[22.9225,48.34303],[22.92279,48.3374],[22.91716,48.32935],[22.91116,48.32941],[22.90703,48.32555],[22.89469,48.32811],[22.89634,48.32055],[22.9072,48.32407],[22.89188,48.3134],[22.89664,48.31158],[22.89984,48.30215],[22.89025,48.29834],[22.89835,48.28146],[22.88894,48.28125],[22.87377,48.28739],[22.87225,48.29122],[22.87629,48.30056],[22.85572,48.30493],[22.85777,48.31619],[22.8531,48.32619],[22.87775,48.32644],[22.87433,48.33177],[22.87947,48.33458],[22.87723,48.34082],[22.87082,48.34211],[22.86358,48.35515],[22.85663,48.3509],[22.86023,48.33599],[22.84088,48.33752],[22.84568,48.3423],[22.83577,48.34666],[22.83054,48.34578],[22.82665,48.34192],[22.82831,48.33942],[22.83852,48.33561],[22.83479,48.33122],[22.82501,48.32967],[22.81589,48.31952],[22.81498,48.31445],[22.79157,48.30974],[22.78819,48.30002],[22.79253,48.29733],[22.79235,48.29111],[22.76646,48.29431],[22.75464,48.28784],[22.70747,48.29314],[22.66802,48.3073],[22.64069,48.33965],[22.62942,48.33261],[22.63545,48.32312],[22.61806,48.31402],[22.60175,48.31631],[22.6131,48.32323],[22.61139,48.32588],[22.6051,48.32262],[22.59292,48.32757],[22.59713,48.33222],[22.58523,48.33031],[22.58157,48.33652],[22.57431,48.33586],[22.57154,48.33921],[22.56355,48.33022],[22.54471,48.32557],[22.55619,48.32047],[22.56998,48.32478],[22.57632,48.32058],[22.56967,48.31618],[22.56682,48.30681],[22.5517,48.29957],[22.54051,48.30143],[22.52714,48.29741],[22.50409,48.30096],[22.50438,48.30652],[22.50165,48.30814],[22.53581,48.33107],[22.52425,48.33385],[22.54309,48.349],[22.53338,48.35389],[22.5331,48.3608],[22.52136,48.36412],[22.50876,48.37309],[22.49498,48.37302],[22.49817,48.38076],[22.49239,48.38648],[22.50258,48.40401],[22.46648,48.41015],[22.46228,48.41351],[22.46659,48.41654],[22.46571,48.42114],[22.4575,48.42355],[22.44925,48.43199],[22.43156,48.43112],[22.43027,48.43443],[22.43852,48.43764],[22.43594,48.4407],[22.42276,48.44245],[22.40439,48.45067],[22.40659,48.45283],[22.39917,48.45381],[22.3883,48.46417],[22.38264,48.46427],[22.37557,48.47032],[22.36186,48.47516],[22.36918,48.48099],[22.38034,48.48139],[22.38322,48.48589],[22.39005,48.48351],[22.40081,48.48675],[22.40209,48.49035],[22.43422,48.48269],[22.43643,48.47693],[22.44993,48.47752],[22.45887,48.48144],[22.47211,48.48044],[22.47955,48.48368],[22.47963,48.48905],[22.48931,48.49371],[22.50257,48.49306],[22.50984,48.49596],[22.513,48.49206],[22.54756,48.48837],[22.54844,48.4839],[22.55794,48.48159],[22.55774,48.49501],[22.5831,48.49931],[22.58324,48.51137],[22.57754,48.51081],[22.57742,48.51524],[22.57058,48.52258],[22.55469,48.53102],[22.55751,48.53263],[22.55501,48.55143],[22.54929,48.55964],[22.55286,48.56089],[22.55447,48.55681],[22.55987,48.5549],[22.58221,48.56902],[22.58924,48.56798],[22.60049,48.57454],[22.61388,48.57512],[22.61951,48.57877],[22.62801,48.57729],[22.63252,48.58338],[22.62993,48.58451],[22.63647,48.58854],[22.63785,48.59365],[22.65361,48.60083],[22.6524,48.60723],[22.65619,48.61551],[22.65366,48.6184],[22.66751,48.62885],[22.66806,48.63562],[22.67321,48.63956],[22.67209,48.64514],[22.67702,48.65019],[22.70999,48.64512],[22.70981,48.63941],[22.72524,48.63637],[22.72798,48.63145],[22.75671,48.63214],[22.76698,48.63683],[22.78825,48.63371],[22.80589,48.61941],[22.81381,48.61787],[22.81239,48.61561],[22.81592,48.61249],[22.85213,48.61628],[22.8587,48.62263],[22.8566,48.63462],[22.85984,48.63597],[22.84782,48.6388],[22.8534,48.65089],[22.84993,48.65904],[22.85654,48.66707],[22.85144,48.67024],[22.85372,48.67699],[22.84869,48.68277],[22.86762,48.7137],[22.86113,48.71931],[22.86201,48.72787],[22.87302,48.73965],[22.8702,48.74887],[22.88239,48.75055],[22.89403,48.75718],[22.89611,48.76398],[22.8798,48.78611],[22.8795,48.78917],[22.88768,48.79287],[22.88127,48.80188],[22.88314,48.80536],[22.87831,48.80784],[22.87343,48.81674],[22.88199,48.82798],[22.86909,48.84515],[22.8602,48.84898],[22.84745,48.86712],[22.8333,48.86959],[22.83342,48.87784],[22.84981,48.88697],[22.8485,48.89161],[22.86026,48.89899],[22.85762,48.90353],[22.86369,48.9105],[22.85961,48.91774],[22.88604,48.92474],[22.88742,48.9228]]],[[[22.58336,49.09703],[22.59976,49.09346],[22.60506,49.08454],[22.62564,49.08018],[22.63963,49.05972],[22.64595,49.05765],[22.65162,49.05074],[22.65975,49.04713],[22.66928,49.0476],[22.67116,49.04279],[22.68011,49.03934],[22.68646,49.03972],[22.69824,49.04936],[22.71772,49.05295],[22.75202,49.04265],[22.76011,49.04719],[22.76174,49.05198],[22.77184,49.05206],[22.80011,49.03646],[22.80949,49.03438],[22.81308,49.02515],[22.82432,49.02274],[22.83346,49.02594],[22.84425,49.01153],[22.84417,49.00466],[22.84698,49.00237],[22.86877,49.00355],[22.87999,48.99996],[22.89767,49.00496],[22.91414,48.98909],[22.91795,48.9821],[22.91566,48.97617],[22.91896,48.96965],[22.91121,48.96557],[22.89945,48.96951],[22.87324,48.95679],[22.87283,48.94202],[22.88604,48.92474],[22.85961,48.91774],[22.86369,48.9105],[22.85762,48.90353],[22.86026,48.89899],[22.8485,48.89161],[22.84981,48.88697],[22.83342,48.87784],[22.8333,48.86959],[22.84745,48.86712],[22.8602,48.84898],[22.86909,48.84515],[22.88199,48.82798],[22.87343,48.81674],[22.87831,48.80784],[22.88314,48.80536],[22.88127,48.80188],[22.88768,48.79287],[22.8795,48.78917],[22.8798,48.78611],[22.89611,48.76398],[22.89403,48.75718],[22.88239,48.75055],[22.8702,48.74887],[22.87302,48.73965],[22.86123,48.72383],[22.86113,48.71931],[22.86762,48.7137],[22.84869,48.68277],[22.85372,48.67699],[22.85144,48.67024],[22.85654,48.66707],[22.84993,48.65904],[22.8534,48.65089],[22.84782,48.6388],[22.85963,48.63667],[22.8566,48.63462],[22.8587,48.62263],[22.84934,48.61496],[22.81912,48.61197],[22.78825,48.63371],[22.76698,48.63683],[22.75671,48.63214],[22.72798,48.63145],[22.72524,48.63637],[22.70981,48.63941],[22.70999,48.64512],[22.67702,48.65019],[22.67209,48.64514],[22.67321,48.63956],[22.66806,48.63562],[22.66751,48.62885],[22.65366,48.6184],[22.65619,48.61551],[22.6524,48.60723],[22.65361,48.60083],[22.63785,48.59365],[22.63647,48.58854],[22.62993,48.58451],[22.63252,48.58338],[22.62801,48.57729],[22.61951,48.57877],[22.61388,48.57512],[22.60049,48.57454],[22.58924,48.56798],[22.58221,48.56902],[22.55987,48.5549],[22.55447,48.55681],[22.55286,48.56089],[22.54929,48.55964],[22.55501,48.55143],[22.55751,48.53263],[22.55469,48.53102],[22.57058,48.52258],[22.57742,48.51524],[22.57754,48.51081],[22.58324,48.51137],[22.5831,48.49931],[22.55774,48.49501],[22.55794,48.48159],[22.54844,48.4839],[22.54756,48.48837],[22.513,48.49206],[22.50997,48.49596],[22.48527,48.49202],[22.47954,48.48899],[22.48098,48.48556],[22.47522,48.48125],[22.45887,48.48144],[22.44523,48.47685],[22.43643,48.47693],[22.43422,48.48269],[22.40745,48.49021],[22.40209,48.49035],[22.40081,48.48675],[22.39021,48.48353],[22.38322,48.48589],[22.37919,48.48093],[22.37666,48.48297],[22.36782,48.4803],[22.36179,48.47489],[22.36812,48.47413],[22.38264,48.46427],[22.3883,48.46417],[22.39917,48.45381],[22.40659,48.45283],[22.40439,48.45067],[22.42276,48.44245],[22.43692,48.44001],[22.43713,48.43627],[22.43027,48.43443],[22.43225,48.43055],[22.4473,48.43279],[22.4575,48.42355],[22.46531,48.42164],[22.46671,48.41682],[22.46231,48.41309],[22.46648,48.41015],[22.50258,48.40401],[22.4924,48.38634],[22.47544,48.38597],[22.47376,48.38013],[22.48189,48.37379],[22.45955,48.37463],[22.45166,48.37809],[22.44853,48.37561],[22.41797,48.39062],[22.40484,48.3804],[22.39387,48.39239],[22.38391,48.38763],[22.38157,48.37906],[22.36513,48.37882],[22.35946,48.38191],[22.36184,48.38845],[22.35597,48.38871],[22.36103,48.40261],[22.34207,48.40604],[22.34796,48.38445],[22.34277,48.38195],[22.34738,48.37988],[22.34545,48.37722],[22.31882,48.36861],[22.31769,48.354],[22.29967,48.35345],[22.26736,48.36088],[22.25248,48.37938],[22.24003,48.38626],[22.25603,48.39299],[22.26408,48.40436],[22.26464,48.41011],[22.23441,48.41065],[22.2157,48.42437],[22.20706,48.42567],[22.18288,48.41443],[22.15745,48.41005],[22.15522,48.40387],[22.14259,48.40425],[22.14256,48.41124],[22.13711,48.41677],[22.14018,48.42861],[22.13762,48.43269],[22.15822,48.527],[22.16092,48.56731],[22.1713,48.58749],[22.18729,48.60341],[22.18898,48.60973],[22.19824,48.6095],[22.21577,48.6213],[22.22999,48.62063],[22.24043,48.62767],[22.24963,48.6395],[22.25025,48.64743],[22.28222,48.66152],[22.30247,48.67634],[22.3396,48.68401],[22.34572,48.69844],[22.34549,48.70583],[22.35361,48.71776],[22.3505,48.7202],[22.36173,48.73017],[22.36214,48.73997],[22.35373,48.7431],[22.34984,48.74905],[22.34245,48.75054],[22.34551,48.7661],[22.35021,48.77156],[22.3733,48.7824],[22.37892,48.79459],[22.38754,48.79999],[22.3836,48.82443],[22.37574,48.83405],[22.37987,48.83884],[22.38357,48.86548],[22.39423,48.87316],[22.39449,48.87699],[22.42102,48.88452],[22.42045,48.90339],[22.43137,48.91935],[22.42474,48.92922],[22.46614,48.97292],[22.47557,48.97626],[22.47727,48.99114],[22.5007,48.99951],[22.52081,48.99668],[22.54545,49.00675],[22.53801,49.0212],[22.54796,49.0252],[22.55117,49.03007],[22.55313,49.07948],[22.56255,49.08102],[22.56609,49.0881],[22.58336,49.09703]]],[[[23.37544,48.7542],[23.37803,48.74379],[23.39118,48.73966],[23.39682,48.73294],[23.41004,48.73571],[23.43057,48.72641],[23.46675,48.72379],[23.47107,48.71835],[23.4919,48.72256],[23.51174,48.73475],[23.54057,48.72346],[23.57014,48.72479],[23.59207,48.71795],[23.59854,48.70526],[23.61373,48.70387],[23.62599,48.70653],[23.63822,48.69866],[23.63579,48.6941],[23.63972,48.69016],[23.63735,48.68429],[23.66116,48.67282],[23.66353,48.66757],[23.67404,48.66533],[23.68714,48.64736],[23.70662,48.63867],[23.73279,48.63804],[23.74507,48.64661],[23.75515,48.64395],[23.76541,48.64595],[23.77217,48.64098],[23.7788,48.64361],[23.78896,48.64066],[23.79746,48.63254],[23.79416,48.62956],[23.79632,48.62051],[23.7941,48.61541],[23.78642,48.61094],[23.78676,48.60568],[23.79669,48.60042],[23.79114,48.5945],[23.79211,48.59175],[23.80207,48.58566],[23.80399,48.58065],[23.83547,48.57943],[23.83237,48.56771],[23.86008,48.55269],[23.85971,48.54668],[23.86476,48.541],[23.86266,48.53619],[23.85447,48.5313],[23.85881,48.52339],[23.85455,48.5163],[23.83894,48.50521],[23.83959,48.48986],[23.83108,48.48419],[23.82533,48.46613],[23.81098,48.45666],[23.80727,48.44765],[23.81554,48.44512],[23.81133,48.43814],[23.81918,48.43156],[23.80972,48.42668],[23.80548,48.41663],[23.79427,48.40843],[23.79603,48.40647],[23.79169,48.40021],[23.76676,48.38479],[23.75573,48.38812],[23.75075,48.38453],[23.75006,48.37469],[23.73516,48.37301],[23.7367,48.36531],[23.72791,48.36607],[23.73049,48.36782],[23.72823,48.37243],[23.70992,48.37444],[23.70317,48.37228],[23.69447,48.35774],[23.69506,48.34809],[23.68006,48.34105],[23.66622,48.3387],[23.68406,48.31681],[23.67806,48.31194],[23.65682,48.31397],[23.63063,48.30134],[23.62545,48.27969],[23.61579,48.27414],[23.61606,48.269],[23.59904,48.25471],[23.58732,48.25459],[23.58489,48.23938],[23.57829,48.23863],[23.58012,48.23439],[23.57265,48.22692],[23.57457,48.22277],[23.5554,48.22394],[23.55601,48.21879],[23.55066,48.21542],[23.55258,48.2106],[23.5461,48.20582],[23.52718,48.20787],[23.52576,48.19728],[23.51036,48.17596],[23.51853,48.17226],[23.51826,48.16655],[23.51443,48.16344],[23.51797,48.16098],[23.5169,48.15864],[23.52422,48.15895],[23.52784,48.15453],[23.52787,48.14569],[23.549,48.14372],[23.55393,48.14],[23.54844,48.13494],[23.54776,48.12842],[23.53358,48.12406],[23.52985,48.1177],[23.51082,48.11809],[23.49777,48.12408],[23.49221,48.11762],[23.47838,48.11829],[23.47032,48.1142],[23.46315,48.09979],[23.46323,48.09007],[23.43881,48.06999],[23.44359,48.06119],[23.43946,48.059],[23.44045,48.05644],[23.44719,48.04975],[23.44622,48.04495],[23.45237,48.04044],[23.46143,48.03981],[23.46958,48.03451],[23.50056,48.03413],[23.51056,48.02556],[23.52845,48.02256],[23.52085,47.99435],[23.50507,47.98025],[23.50266,47.97417],[23.50476,47.97167],[23.50097,47.96866],[23.49362,47.96771],[23.48067,47.97317],[23.45002,47.97615],[23.44624,47.98108],[23.43672,47.98277],[23.43366,47.99036],[23.41688,47.9866],[23.40486,47.9918],[23.40164,47.9949],[23.40348,47.9988],[23.39934,48.00101],[23.3876,48.00427],[23.37636,48.00322],[23.37342,48.00975],[23.35733,48.01413],[23.34896,48.02059],[23.33866,48.01798],[23.33214,48.0205],[23.32855,48.02399],[23.33089,48.03234],[23.33887,48.03522],[23.33407,48.03796],[23.32518,48.03589],[23.31447,48.04471],[23.30252,48.04208],[23.28792,48.04675],[23.27641,48.05969],[23.29191,48.07349],[23.28084,48.0819],[23.26946,48.08511],[23.26784,48.10017],[23.26115,48.1081],[23.27152,48.12154],[23.27105,48.13189],[23.26378,48.15232],[23.24377,48.15305],[23.23943,48.15748],[23.23649,48.15303],[23.23133,48.15229],[23.22383,48.15787],[23.20518,48.16254],[23.20313,48.17192],[23.17532,48.18067],[23.16859,48.18828],[23.15588,48.19289],[23.15504,48.19816],[23.15746,48.19866],[23.15214,48.21138],[23.12428,48.22532],[23.12331,48.22964],[23.10291,48.24262],[23.10011,48.24248],[23.09817,48.23312],[23.09474,48.2315],[23.09285,48.22062],[23.06266,48.22199],[23.06316,48.22951],[23.06701,48.23191],[23.05817,48.24081],[23.06062,48.24227],[23.05675,48.25162],[23.05917,48.25449],[23.05198,48.2558],[23.0517,48.26025],[23.04611,48.25774],[23.03817,48.26094],[23.04192,48.26782],[23.03552,48.27335],[23.03226,48.27041],[23.01899,48.27075],[22.99945,48.26039],[22.98232,48.26096],[22.96635,48.25367],[22.94613,48.24956],[22.9482,48.25195],[22.94066,48.25674],[22.95024,48.26418],[22.95623,48.27472],[22.97366,48.28007],[22.9791,48.28602],[22.99768,48.28674],[23.03294,48.27932],[23.02528,48.28585],[23.02947,48.28735],[23.02603,48.29249],[23.02694,48.29798],[23.02361,48.295],[23.00877,48.30285],[22.99181,48.31709],[22.98734,48.32485],[22.99114,48.32474],[22.98941,48.32921],[22.99278,48.33326],[22.9757,48.32957],[22.97213,48.33262],[22.97197,48.34034],[22.94876,48.34398],[22.9433,48.35495],[22.94417,48.35893],[22.93824,48.36033],[22.93826,48.37173],[22.91905,48.37801],[22.92088,48.37945],[22.91711,48.38149],[22.9213,48.38424],[22.93124,48.38344],[22.91285,48.40594],[22.89693,48.40817],[22.89405,48.40579],[22.87952,48.40993],[22.8792,48.41807],[22.86904,48.41963],[22.87114,48.4275],[22.86057,48.42841],[22.85097,48.43781],[22.86005,48.44412],[22.8631,48.44015],[22.87729,48.43497],[22.87829,48.4414],[22.87147,48.44206],[22.88231,48.44282],[22.88328,48.45089],[22.88723,48.44773],[22.88987,48.44957],[22.8871,48.44665],[22.89014,48.44549],[22.89629,48.44909],[22.89182,48.44293],[22.88288,48.4415],[22.88588,48.43917],[22.8823,48.43747],[22.88779,48.43536],[22.88306,48.4329],[22.89609,48.42482],[22.91177,48.42299],[22.9124,48.42689],[22.91892,48.42848],[22.9184,48.43821],[22.92517,48.44584],[22.92041,48.45175],[22.95148,48.47182],[22.9546,48.48283],[22.96354,48.48985],[22.98058,48.49579],[22.99227,48.49467],[23.01728,48.48175],[23.04969,48.47954],[23.07482,48.46877],[23.09042,48.45611],[23.13119,48.45345],[23.14293,48.44487],[23.14373,48.45142],[23.15894,48.46309],[23.1588,48.46618],[23.16581,48.46871],[23.17078,48.47627],[23.16336,48.48308],[23.16625,48.48449],[23.16442,48.48972],[23.16929,48.49329],[23.15342,48.50313],[23.15782,48.50514],[23.16001,48.51792],[23.1568,48.52434],[23.15873,48.53688],[23.15338,48.53977],[23.15897,48.54605],[23.15311,48.54999],[23.15564,48.55144],[23.15484,48.55591],[23.16399,48.5697],[23.18065,48.57481],[23.19505,48.58545],[23.19888,48.60914],[23.19356,48.61968],[23.18061,48.61899],[23.16481,48.61047],[23.14914,48.61959],[23.13666,48.61808],[23.14274,48.62142],[23.13845,48.62608],[23.15239,48.62253],[23.15311,48.6199],[23.15717,48.62011],[23.15581,48.6165],[23.16616,48.61402],[23.1716,48.61566],[23.16622,48.61849],[23.17856,48.62702],[23.16483,48.62934],[23.16438,48.63608],[23.1899,48.63355],[23.19103,48.63756],[23.18734,48.6401],[23.18949,48.64306],[23.20904,48.63642],[23.21987,48.64295],[23.2262,48.6403],[23.23105,48.64813],[23.24835,48.65163],[23.24682,48.66253],[23.26552,48.67664],[23.28439,48.68287],[23.29061,48.68832],[23.29309,48.69383],[23.28892,48.70418],[23.2926,48.7116],[23.29024,48.7164],[23.29668,48.72119],[23.30867,48.72186],[23.31378,48.72782],[23.31129,48.73766],[23.31575,48.74189],[23.3173,48.75354],[23.3396,48.75648],[23.35396,48.76368],[23.35925,48.77268],[23.3692,48.76552],[23.37544,48.7542]]],[[[22.90529,48.24887],[22.9109,48.24989],[22.91786,48.24298],[22.90032,48.23831],[22.90244,48.24055],[22.89614,48.24261],[22.90286,48.25057],[22.90529,48.24887]]]]}}]}